METHANESAT              
1 59101U 24043D   26062.84507558  .00005802  00000+0  50183-3 0  9991
2 59101  97.8274 193.5125 0010387  12.1630 347.9841 14.97529529108887
GOSAT-GW (IBUKI GW)     
1 64694U 25141A   26063.19081830  .00001378  00000+0  25134-3 0  9995
2 64694  98.0500   2.2591 0001424  83.7056 276.4311 14.67564503 36444
GHGSAT-C1               
1 46278U 20061G   26063.16489161  .00042954  00000+0  45433-3 0  9994
2 46278  97.2175 145.3929 0002374  89.2377 270.9154 15.64053732307021
GHGSAT-C12              
1 64529U 25135B   26063.10982330  .00006231  00000+0  29664-3 0  9996
2 64529  97.4621 178.9872 0005421 165.0151 195.1245 15.19494621 38864
GHGSAT-C13              
1 64548U 25135W   26063.09645723  .00005505  00000+0  25734-3 0  9994
2 64548  97.4649 179.3900 0002633 106.6789 253.4735 15.20189981 38888
GHGSAT-C2               
1 47509U 21006DA  26063.08144823  .00009875  00000+0  28006-3 0  9998
2 47509  97.2300 112.1531 0005515 168.1461 191.9914 15.36415045283703
GHGSAT-C3               
1 52737U 22057F   26063.12785734  .00012441  00000+0  39460-3 0  9990
2 52737  97.6419 205.0653 0007234 130.0803 230.1073 15.32817186209430
GHGSAT-C4               
1 52746U 22057Q   26063.21272456  .00013053  00000+0  41392-3 0  9999
2 52746  97.6346 204.0908 0007536 117.2196 242.9814 15.32809481209453
GHGSAT-C5               
1 52744U 22057N   26063.16527255  .00012273  00000+0  38949-3 0  9998
2 52744  97.6510 206.5553 0008099 127.3017 232.8964 15.32797428209446
GHGSAT-C6               
1 56204U 23054AC  26063.18296538  .00022662  00000+0  40949-3 0  9996
2 56204  97.3134 331.4136 0009780  69.8589 290.3713 15.49667823162179
GHGSAT-C7               
1 56209U 23054AH  26063.13932965  .00017621  00000+0  34430-3 0  9994
2 56209  97.3089 330.3188 0010000  64.7043 295.5242 15.47467535162130
GHGSAT-C8               
1 56186U 23054J   26063.21891438  .00023609  00000+0  42627-3 0  9996
2 56186  97.3101 330.8414 0007642  86.6534 273.5591 15.49702286162165
SENTINEL-5P             
1 42969U 17064A   26062.82486498  .00000094  00000+0  65645-4 0  9995
2 42969  98.7875   5.7297 0001108  80.6139 279.5162 14.19547410434619
ENMAP                   
1 52159U 22033C   26063.21866637  .00000535  00000+0  87131-4 0  9994
2 52159  97.9779 146.9606 0001014  89.4786 270.6539 14.74959665211183
PRISMA                  
1 44072U 19015A   26063.20138808  .00000428  00000+0  58208-4 0  9990
2 44072  97.8730 139.5043 0001228  98.8564 261.2789 14.83696458376488
SENTINEL-2A             
1 40697U 15028A   26056.18000490  .00000159  00000+0  76852-4 0  9999
2 40697  98.5024 132.8928 0054368 194.7437 165.2162 14.30192923557712
SENTINEL-2B             
1 42063U 17013A   26063.17252813  .00000136  00000+0  68577-4 0  9999
2 42063  98.5672 139.4465 0001088  94.7740 265.3567 14.30817447469624
SENTINEL-2C             
1 60989U 24157A   26063.13758436  .00000192  00000+0  89786-4 0  9998
2 60989  98.5628 139.4283 0000771  99.8569 260.2701 14.30822907 77966
LANDSAT 8               
1 39084U 13008A   26063.16688196  .00000551  00000+0  13221-3 0  9990
2 39084  98.1928 134.9829 0001229  90.8123 269.3217 14.57125215682601
LANDSAT 9               
1 49260U 21088A   26063.20134289  .00000589  00000+0  14077-3 0  9999
2 49260  98.1949 135.0759 0001153  89.7578 270.3753 14.57119371235711
TANAGER-1               
1 60507U 24149AR  26062.79390940  .00005718  00000+0  12916-3 0  9997
2 60507  97.3804 156.0902 0006983 223.1382 136.9319 15.43580999 86774
